{"type": "FeatureCollection", "features": [ {"type": "Feature", "properties": {"norad_id": 35165, "name": "FENGYUN 1C DEB", "group": "fengyun-1c-debris", "lat": 8.121944662078558, "lon": 87.34296270973768, "alt_km": 767.5089541796606, "timestamp": "2025-12-22T11:33:20.727182+00:00", "meta": {"OBJECT_NAME": "FENGYUN 1C DEB", "OBJECT_ID": "1999-025DMV", "EPOCH": "2025-12-21T05:22:21.779616", "MEAN_MOTION": 14.33882696, "ECCENTRICITY": 0.0020007, "INCLINATION": 98.8797, "RA_OF_ASC_NODE": 87.3309, "ARG_OF_PERICENTER": 36.4089, "MEAN_ANOMALY": 323.8451, "EPHEMERIS_TYPE": 0, "CLASSIFICATION_TYPE": "U", "NORAD_CAT_ID": 35165, "ELEMENT_SET_NO": 999, "REV_AT_EPOCH": 89842, "BSTAR": 0.0014686, "MEAN_MOTION_DOT": 4.055e-05, "MEAN_MOTION_DDOT": 0}, "tle": {"line1": "1 35165U 99025DMV 25355.22386319  .00004055  00000+0  14686-2 0  9999", "line2": "2 35165  98.8797  87.3309 0020007  36.4089 323.8451 14.33882696898426"}}, "geometry": {"type": "Point", "coordinates": [87.34296270973768, 8.121944662078558]}}, {"type": "Feature", "properties": {"norad_id": 35167, "name": "FENGYUN 1C DEB", "group": "fengyun-1c-debris", "lat": 35.88591523400195, "lon": -16.75081928965194, "alt_km": 907.5433890613895, "timestamp": "2025-12-22T11:33:20.727192+00:00", "meta": {"OBJECT_NAME": "FENGYUN 1C DEB", "OBJECT_ID": "1999-025DMX", "EPOCH": "2025-12-17T22:18:45.149472", "MEAN_MOTION": 14.31170783, "ECCENTRICITY": 0.02295949, "INCLINATION": 98.4497, "RA_OF_ASC_NODE": 344.992, "ARG_OF_PERICENTER": 188.7522, "MEAN_ANOMALY": 170.9628, "EPHEMERIS_TYPE": 0, "CLASSIFICATION_TYPE": "U", "NORAD_CAT_ID": 35167, "ELEMENT_SET_NO": 999, "REV_AT_EPOCH": 70094, "BSTAR": 0.00031462149, "MEAN_MOTION_DOT": 1.059e-05, "MEAN_MOTION_DDOT": 0}, "tle": {"line1": "1 35167U 99025DMX 25351.92968923  .00001059  00000+0  31462-3 0  9994", "line2": "2 35167  98.4497 344.9920 0229594 188.7522 170.9628 14.31170783700948"}}, "geometry": {"type": "Point", "coordinates": [-16.75081928965194, 35.88591523400195]}}, {"type": "Feature", "properties": {"norad_id": 35168, "name": "FENGYUN 1C DEB", "group": "fengyun-1c-debris", "lat": 24.596870213014505, "lon": 71.49201506530817, "alt_km": 787.5897293856751, "timestamp": "2025-12-22T11:33:20.727202+00:00", "meta": {"OBJECT_NAME": "FENGYUN 1C DEB", "OBJECT_ID": "1999-025DMY", "EPOCH": "2025-12-21T22:57:46.882368", "MEAN_MOTION": 14.15533628, "ECCENTRICITY": 0.0126157, "INCLINATION": 98.2757, "RA_OF_ASC_NODE": 247.1845, "ARG_OF_PERICENTER": 100.9032, "MEAN_ANOMALY": 260.6368, "EPHEMERIS_TYPE": 0, "CLASSIFICATION_TYPE": "U", "NORAD_CAT_ID": 35168, "ELEMENT_SET_NO": 999, "REV_AT_EPOCH": 58054, "BSTAR": 0.00025025, "MEAN_MOTION_DOT": 4.9e-06, "MEAN_MOTION_DDOT": 0}, "tle": {"line1": "1 35168U 99025DMY 25355.95679262  .00000490  00000+0  25025-3 0  9993", "line2": "2 35168  98.2757 247.1845 0126157 100.9032 260.6368 14.15533628580542"}}, "geometry": {"type": "Point", "coordinates": [71.49201506530817, 24.596870213014505]}}, {"type": "Feature", "properties": {"norad_id": 35169, "name": "FENGYUN 1C DEB", "group": "fengyun-1c-debris", "lat": -29.891527954460763, "lon": -113.68916124701326, "alt_km": 735.8984920205758, "timestamp": "2025-12-22T11:33:20.727212+00:00", "meta": {"OBJECT_NAME": "FENGYUN 1C DEB", "OBJECT_ID": "1999-025DMZ", "EPOCH": "2025-12-13T21:54:45.837792", "MEAN_MOTION": 14.5866776, "ECCENTRICITY": 0.01527117, "INCLINATION": 99.1288, "RA_OF_ASC_NODE": 231.5975, "ARG_OF_PERICENTER": 104.1831, "MEAN_ANOMALY": 257.6385, "EPHEMERIS_TYPE": 0, "CLASSIFICATION_TYPE": "U", "NORAD_CAT_ID": 35169, "ELEMENT_SET_NO": 999, "REV_AT_EPOCH": 65797, "BSTAR": 0.00059843273, "MEAN_MOTION_DOT": 3.218e-05, "MEAN_MOTION_DDOT": 0}, "tle": {"line1": "1 35169U 99025DMZ 25347.91303053  .00003218  00000+0  59843-3 0  9999", "line2": "2 35169  99.1288 231.5975 0152711 104.1831 257.6385 14.58667760657970"}}, "geometry": {"type": "Point", "coordinates": [-113.68916124701326, -29.891527954460763]}}, {"type": "Feature", "properties": {"norad_id": 35171, "name": "FENGYUN 1C DEB", "group": "fengyun-1c-debris", "lat": -33.94694772854431, "lon": 153.75229483100742, "alt_km": 832.9901408191245, "timestamp": "2025-12-22T11:33:20.727222+00:00", "meta": {"OBJECT_NAME": "FENGYUN 1C DEB", "OBJECT_ID": "1999-025DNB", "EPOCH": "2025-12-21T16:46:57.851616", "MEAN_MOTION": 13.95002805, "ECCENTRICITY": 0.0138279, "INCLINATION": 99.0084, "RA_OF_ASC_NODE": 146.8583, "ARG_OF_PERICENTER": 294.0757, "MEAN_ANOMALY": 64.599, "EPHEMERIS_TYPE": 0, "CLASSIFICATION_TYPE": "U", "NORAD_CAT_ID": 35171, "ELEMENT_SET_NO": 999, "REV_AT_EPOCH": 88683, "BSTAR": 0.0014761, "MEAN_MOTION_DOT": 2.107e-05, "MEAN_MOTION_DDOT": 0}, "tle": {"line1": "1 35171U 99025DNB 25355.69928069  .00002107  00000+0  14761-2 0  9991", "line2": "2 35171  99.0084 146.8583 0138279 294.0757  64.5990 13.95002805886837"}}, "geometry": {"type": "Point", "coordinates": [153.75229483100742, -33.94694772854431]}}, {"type": "Feature", "properties": {"norad_id": 35173, "name": "FENGYUN 1C DEB", "group": "fengyun-1c-debris", "lat": 60.47741631203631, "lon": 49.94298173113268, "alt_km": 1328.0042682386002, "timestamp": "2025-12-22T11:33:20.727232+00:00", "meta": {"OBJECT_NAME": "FENGYUN 1C DEB", "OBJECT_ID": "1999-025DND", "EPOCH": "2025-12-22T00:26:44.822112", "MEAN_MOTION": 13.37371339, "ECCENTRICITY": 0.0490843, "INCLINATION": 99.786, "RA_OF_ASC_NODE": 67.2396, "ARG_OF_PERICENTER": 191.1556, "MEAN_ANOMALY": 167.8363, "EPHEMERIS_TYPE": 0, "CLASSIFICATION_TYPE": "U", "NORAD_CAT_ID": 35173, "ELEMENT_SET_NO": 999, "REV_AT_EPOCH": 65953, "BSTAR": 0.0019866, "MEAN_MOTION_DOT": 2.041e-05, "MEAN_MOTION_DDOT": 0}, "tle": {"line1": "1 35173U 99025DND 25356.01857433  .00002041  00000+0  19866-2 0  9994", "line2": "2 35173  99.7860  67.2396 0490843 191.1556 167.8363 13.37371339659531"}}, "geometry": {"type": "Point", "coordinates": [49.94298173113268, 60.47741631203631]}}, {"type": "Feature", "properties": {"norad_id": 35174, "name": "FENGYUN 1C DEB", "group": "fengyun-1c-debris", "lat": 3.018201389369102, "lon": 152.72722167872516, "alt_km": 474.6635492043388, "timestamp": "2025-12-22T11:33:20.727242+00:00", "meta": {"OBJECT_NAME": "FENGYUN 1C DEB", "OBJECT_ID": "1999-025DNE", "EPOCH": "2025-12-13T04:07:25.072608", "MEAN_MOTION": 14.98877767, "ECCENTRICITY": 0.01541479, "INCLINATION": 98.9697, "RA_OF_ASC_NODE": 321.54, "ARG_OF_PERICENTER": 181.4297, "MEAN_ANOMALY": 178.6503, "EPHEMERIS_TYPE": 0, "CLASSIFICATION_TYPE": "U", "NORAD_CAT_ID": 35174, "ELEMENT_SET_NO": 999, "REV_AT_EPOCH": 90172, "BSTAR": 0.0023807921, "MEAN_MOTION_DOT": 0.0003695, "MEAN_MOTION_DDOT": 0}, "tle": {"line1": "1 35174U 99025DNE 25347.17181797  .00036950  00000+0  23808-2 0  9992", "line2": "2 35174  98.9697 321.5400 0154147 181.4297 178.6503 14.98877767901722"}}, "geometry": {"type": "Point", "coordinates": [152.72722167872516, 3.018201389369102]}}, {"type": "Feature", "properties": {"norad_id": 35175, "name": "FENGYUN 1C DEB", "group": "fengyun-1c-debris", "lat": 49.15869754744059, "lon": -165.4034461989079, "alt_km": 837.6990821231484, "timestamp": "2025-12-22T11:33:20.727252+00:00", "meta": {"OBJECT_NAME": "FENGYUN 1C DEB", "OBJECT_ID": "1999-025DNF", "EPOCH": "2025-12-20T06:33:53.846496", "MEAN_MOTION": 14.21314164, "ECCENTRICITY": 0.00571201, "INCLINATION": 98.5743, "RA_OF_ASC_NODE": 2.4011, "ARG_OF_PERICENTER": 257.8544, "MEAN_ANOMALY": 101.6231, "EPHEMERIS_TYPE": 0, "CLASSIFICATION_TYPE": "U", "NORAD_CAT_ID": 35175, "ELEMENT_SET_NO": 999, "REV_AT_EPOCH": 61342, "BSTAR": 0.00027562442, "MEAN_MOTION_DOT": 5.68e-06, "MEAN_MOTION_DDOT": 0}, "tle": {"line1": "1 35175U 99025DNF 25354.27353989  .00000568  00000+0  27562-3 0  9994", "line2": "2 35175  98.5743   2.4011 0057120 257.8544 101.6231 14.21314164613424"}}, "geometry": {"type": "Point", "coordinates": [-165.4034461989079, 49.15869754744059]}}, {"type": "Feature", "properties": {"norad_id": 35176, "name": "FENGYUN 1C DEB", "group": "fengyun-1c-debris", "lat": -1.8629043895467055, "lon": -16.842224531710144, "alt_km": 804.9043356045622, "timestamp": "2025-12-22T11:33:20.727262+00:00", "meta": {"OBJECT_NAME": "FENGYUN 1C DEB", "OBJECT_ID": "1999-025DNG", "EPOCH": "2025-12-21T16:55:23.928384", "MEAN_MOTION": 14.17007597, "ECCENTRICITY": 0.0054293, "INCLINATION": 98.5559, "RA_OF_ASC_NODE": 342.1303, "ARG_OF_PERICENTER": 31.1664, "MEAN_ANOMALY": 329.2712, "EPHEMERIS_TYPE": 0, "CLASSIFICATION_TYPE": "U", "NORAD_CAT_ID": 35176, "ELEMENT_SET_NO": 999, "REV_AT_EPOCH": 91055, "BSTAR": 0.00029916, "MEAN_MOTION_DOT": 5.68e-06, "MEAN_MOTION_DDOT": 0}, "tle": {"line1": "1 35176U 99025DNG 25355.70513806  .00000568  00000+0  29916-3 0  9995", "line2": "2 35176  98.5559 342.1303 0054293  31.1664 329.2712 14.17007597910552"}}, "geometry": {"type": "Point", "coordinates": [-16.842224531710144, -1.8629043895467055]}}, {"type": "Feature", "properties": {"norad_id": 35180, "name": "FENGYUN 1C DEB", "group": "fengyun-1c-debris", "lat": 4.352765697409485, "lon": 156.3748629396954, "alt_km": 627.2775505083337, "timestamp": "2025-12-22T11:33:20.727271+00:00", "meta": {"OBJECT_NAME": "FENGYUN 1C DEB", "OBJECT_ID": "1999-025DNL", "EPOCH": "2025-12-18T06:12:40.442688", "MEAN_MOTION": 13.74433768, "ECCENTRICITY": 0.0495914, "INCLINATION": 99.7248, "RA_OF_ASC_NODE": 152.8056, "ARG_OF_PERICENTER": 4.1044, "MEAN_ANOMALY": 356.395, "EPHEMERIS_TYPE": 0, "CLASSIFICATION_TYPE": "U", "NORAD_CAT_ID": 35180, "ELEMENT_SET_NO": 999, "REV_AT_EPOCH": 110, "BSTAR": 0.0014816, "MEAN_MOTION_DOT": 3.398e-05, "MEAN_MOTION_DDOT": 0}, "tle": {"line1": "1 35180U 99025DNL 25352.25880142  .00003398  00000+0  14816-2 0  9993", "line2": "2 35180  99.7248 152.8056 0495914   4.1044 356.3950 13.74433768  1109"}}, "geometry": {"type": "Point", "coordinates": [156.3748629396954, 4.352765697409485]}}]}